IRIDIUM 26              
1 24903U 97043A   25272.83224709  .00000930  00000+0  30589-3 0  9993
2 24903  86.3919  66.6198 0002267  90.7818 269.3639 14.37226583471777
IRIDIUM 22              
1 24907U 97043E   25271.87328345  .00000817  00000+0  27452-3 0  9990
2 24907  86.3917  70.6543 0002146  87.5046 272.6397 14.36028620471657
DUMMY MASS 1            
1 24925U 97048A   25271.98120195  .00000904  00000+0  97597-4 0  9995
2 24925  86.3291  87.3084 0008346 126.2110 233.9888 14.87070520520559
DUMMY MASS 2            
1 24926U 97048B   25272.56637572  .00000960  00000+0  10456-3 0  9993
2 24926  86.3290  88.6657 0008839 135.1601 225.0339 14.86823111520419
IRIDIUM 29              
1 24944U 97051A   25271.99829003  .00000812  00000+0  26978-3 0  9997
2 24944  86.3900 100.3394 0001931  84.8190 275.3228 14.36549603468171
IRIDIUM 33              
1 24946U 97051C   25272.58278023  .00000660  00000+0  22519-3 0  9993
2 24946  86.3815  99.3629 0009946  95.7657 264.4674 14.34952907467715
IRIDIUM 28              
1 24948U 97051E   25272.60233796  .00000836  00000+0  27314-3 0  9999
2 24948  86.3903  97.5392 0002628  91.2547 268.8952 14.37457513468849
IRIDIUM 36              
1 24967U 97056C   25272.68842885  .00000651  00000+0  21024-3 0  9995
2 24967  86.3957 129.1305 0002320  83.0764 277.0697 14.37684500467232
